*******************************************************************************
Revised: Jul 31, 2013                  Earth                                399
 
PHYSICAL PROPERTIES (revised Sep 18, 2013):
 Mean radius, km          = 6371.01+-0.01   Mass, 10^24 kg = 5.97219+-0.0006
 Equ. radius, km          = 6378.14+-0.01   Mass layers:
 Polar axis, km           = 6356.752          Atmos          = 5.1   x 10^18 kg
 Flattening               = 1/298.257         oceans         = 1.4   x 10^21 kg
 Density, gm cm^-3        = 5.515             crust          = 2.6   x 10^22 kg
 J2  (GEM T2, 1990)       = 0.0010826265      mantle         = 4.043 x 10^24 kg
 gp, m s^-2 (polar)       = 9.8321863685      outer core     = 1.835 x 10^24 kg
 ge, m s^-2 (equatorial)  = 9.7803267715      inner core     = 9.675 x 10^22 kg
 go, m s^-2               = 9.82022         Fluid core rad   = 3480 km
 GM, km^3 s^-2            = 398600.440      Inner core rad   = 1215 km
 Mean rot. rate, rad s^-1 = 7.292115*10^-5  Surface Area:
 Sidereal period, hr      = 23.93419          land           = 1.48 x 10^8 km
 Mean solar day, days     = 1.002738          sea            = 3.62 x 10^8 km
 Moment of inertia        = 0.3308          Love no., k2     = 0.299
 Mean Temperature, K      = 270             Atm. pressure    = 1.0 bar
 Solar constant, W/m^2    = 1367.6          Vis. mag. V(1,0) = -3.86
 Volume, 10^10 km^3       = 108.321         Geometric albedo = 0.367 

DYNAMICAL CHARACTERISTICS:
 Obliquity to orbit, deg  = 23.45           Sidereal period  = 1.0000174  yrs
 Orbit velocity, km s^-1  = 29.7859         Sidereal period  = 365.25636  days
 Mean daily motion, n     = 0.9856474 deg/d Escape velocity  = 11.186 km s^-1
 Hill's sphere radius     = 234.9           Magnetic moment  = 0.61 gauss Rp^3
*******************************************************************************
 
 
*******************************************************************************
Ephemeris / WWW_USER Wed Jan 24 11:47:55 2018 Pasadena, USA      / Horizons    
*******************************************************************************
Target body name: Earth (399)                     {source: DE431mx}
Center body name: Solar System Barycenter (0)     {source: DE431mx}
Center-site name: BODY CENTER
*******************************************************************************
Start time      : A.D. 2017-Jan-01 00:00:00.0000 TDB
Stop  time      : A.D. 2068-Jan-01 00:00:00.0000 TDB
Step-size       : 1440 minutes
*******************************************************************************
Center geodetic : 0.00000000,0.00000000,0.0000000 {E-lon(deg),Lat(deg),Alt(km)}
Center cylindric: 0.00000000,0.00000000,0.0000000 {E-lon(deg),Dxy(km),Dz(km)}
Center radii    : (undefined)                                                  
Output units    : KM-S                                                         
Output type     : GEOMETRIC cartesian states
Output format   : 2 (position and velocity)
Reference frame : ICRF/J2000.0                                                 
Coordinate systm: Ecliptic and Mean Equinox of Reference Epoch                 
*******************************************************************************
            JDTDB,            Calendar Date (TDB),                      X,                      Y,                      Z,                     VX,                     VY,                     VZ,
**************************************************************************************************************************************************************************************************
$$SOE
2471290.500000000, A.D. 2054-Jan-23 00:00:00.0000, -7.887496552552800E+07,  1.247826627437601E+08, -8.205775466404855E+03, -2.562272890254797E+01, -1.608032287413986E+01,  1.659941381427998E-03,
2471291.500000000, A.D. 2054-Jan-24 00:00:00.0000, -8.107646245624696E+07,  1.233742401354800E+08, -8.068768602706492E+03, -2.533667638888824E+01, -1.652125426339273E+01,  1.521750029224833E-03,
2471292.500000000, A.D. 2054-Jan-25 00:00:00.0000, -8.325294002946129E+07,  1.219279266267993E+08, -7.940841660641134E+03, -2.504356650440735E+01, -1.695743985842597E+01,  1.451872942544341E-03,
2471293.500000000, A.D. 2054-Jan-26 00:00:00.0000, -8.540378475951707E+07,  1.204441299620786E+08, -7.815669571079314E+03, -2.474330294888301E+01, -1.738891992717811E+01,  1.458614451768092E-03,
2471294.500000000, A.D. 2054-Jan-27 00:00:00.0000, -8.752837287659431E+07,  1.189232579926571E+08, -7.686594587802887E+03, -2.443575132611081E+01, -1.781564951694527E+01,  1.541441986248948E-03,
2471295.500000000, A.D. 2054-Jan-28 00:00:00.0000, -8.962606892226633E+07,  1.173657262333753E+08, -7.547340077377856E+03, -2.412078201285089E+01, -1.823749813872642E+01,  1.692460906608240E-03,
2471296.500000000, A.D. 2054-Jan-29 00:00:00.0000, -9.169622763795924E+07,  1.157719645057337E+08, -7.392531670682132E+03, -2.379830156275235E+01, -1.865426938431220E+01,  1.899174386061020E-03,
2471297.500000000, A.D. 2054-Jan-30 00:00:00.0000, -9.373819781235959E+07,  1.141424214797051E+08, -7.217972037523985E+03, -2.346826654164814E+01, -1.906572778601732E+01,  2.147239732098072E-03,
2471298.500000000, A.D. 2054-Jan-31 00:00:00.0000, -9.575132665816690E+07,  1.124775669855972E+08, -7.020708548754454E+03, -2.313068296671621E+01, -1.947162228105199E+01,  2.422432634083371E-03,
2471299.500000000, A.D. 2054-Feb-01 00:00:00.0000, -9.773496376492824E+07,  1.107778926329109E+08, -6.798972657047212E+03, -2.278559821315858E+01, -1.987170165300052E+01,  2.711669130452954E-03,
2471300.500000000, A.D. 2054-Feb-02 00:00:00.0000, -9.968846424861032E+07,  1.090439114438343E+08, -6.552064085468650E+03, -2.243309129039818E+01, -2.026572220050740E+01,  3.003313984076605E-03,
2471301.500000000, A.D. 2054-Feb-03 00:00:00.0000, -1.016111911194004E+08,  1.072761570755716E+08, -6.280227534793317E+03, -2.207326481348023E+01, -2.065345004566467E+01,  3.287096441812132E-03,
2471302.500000000, A.D. 2054-Feb-04 00:00:00.0000, -1.035025170753625E+08,  1.054751829790240E+08, -5.984543902397156E+03, -2.170623979358756E+01, -2.103466069308591E+01,  3.553893731743862E-03,
2471303.500000000, A.D. 2054-Feb-05 00:00:00.0000, -1.053618259643051E+08,  1.036415616401015E+08, -5.666839765526354E+03, -2.133215307268889E+01, -2.140913782331333E+01,  3.795543866751849E-03,
2471304.500000000, A.D. 2054-Feb-06 00:00:00.0000, -1.071885141120129E+08,  1.017758839119573E+08, -5.329608775459230E+03, -2.095115664753077E+01, -2.177667253835869E+01,  4.004764036279695E-03,
2471305.500000000, A.D. 2054-Feb-07 00:00:00.0000, -1.089819916409279E+08,  9.987875837065691E+07, -4.975934825770557E+03, -2.056341797488394E+01, -2.213706362050035E+01,  4.175189759902054E-03,
2471306.500000000, A.D. 2054-Feb-08 00:00:00.0000, -1.107416838273521E+08,  9.795081060122548E+07, -4.609407407701015E+03, -2.016912043751469E+01, -2.249011886038395E+01,  4.301510173110756E-03,
2471307.500000000, A.D. 2054-Feb-09 00:00:00.0000, -1.124670324838768E+08,  9.599268233239824E+07, -4.234022733107209E+03, -1.976846339180710E+01, -2.283565716272305E+01,  4.379653835572483E-03,
2471308.500000000, A.D. 2054-Feb-10 00:00:00.0000, -1.141574973177785E+08,  9.400503037213233E+07, -3.854068370148540E+03, -1.936166155314032E+01, -2.317351097405486E+01,  4.406977500053699E-03,
2471309.500000000, A.D. 2054-Feb-11 00:00:00.0000, -1.158125572102005E+08,  9.198852533474018E+07, -3.473992654174566E+03, -1.894894381816002E+01, -2.350352862638657E+01,  4.382426812071571E-03,
2471310.500000000, A.D. 2054-Feb-12 00:00:00.0000, -1.174317113808825E+08,  8.994385017601323E+07, -3.098261590994895E+03, -1.853055185830155E+01, -2.382557644157730E+01,  4.306667773700923E-03,
2471311.500000000, A.D. 2054-Feb-13 00:00:00.0000, -1.190144804346912E+08,  8.787169855039614E+07, -2.731204637784511E+03, -1.810673883551385E+01, -2.413954081565549E+01,  4.182220296105044E-03,
2471312.500000000, A.D. 2054-Feb-14 00:00:00.0000, -1.205604073071006E+08,  8.577277296905766E+07, -2.376846995528787E+03, -1.767776832323064E+01, -2.444533086316740E+01,  4.013646186372455E-03,
2471313.500000000, A.D. 2054-Feb-15 00:00:00.0000, -1.220690581109374E+08,  8.364778267801614E+07, -2.038721511021256E+03, -1.724391296236163E+01, -2.474288237633183E+01,  3.807838640456751E-03,
2471314.500000000, A.D. 2054-Feb-16 00:00:00.0000, -1.235400228141861E+08,  8.149744111588946E+07, -1.719650863051414E+03, -1.680545162129515E+01, -2.503216363996146E+01,  3.574414274369886E-03,
2471315.500000000, A.D. 2054-Feb-17 00:00:00.0000, -1.249729155384203E+08,  7.932246279483809E+07, -1.421494481787086E+03, -1.636266307594932E+01, -2.531318280924876E+01,  3.326110017175310E-03,
2471316.500000000, A.D. 2054-Feb-18 00:00:00.0000, -1.263673740786098E+08,  7.712355953813070E+07, -1.144869235694408E+03, -1.591581396500471E+01, -2.558599492795582E+01,  3.078938522355301E-03,
2471317.500000000, A.D. 2054-Feb-19 00:00:00.0000, -1.277230580841369E+08,  7.490143626779319E+07, -8.888810121566057E+02, -1.546513984422467E+01, -2.585070445310986E+01,  2.851706190893921E-03,
2471318.500000000, A.D. 2054-Feb-20 00:00:00.0000, -1.290396453620630E+08,  7.265678697467516E+07, -6.509409928023815E+02, -1.501082140014068E+01, -2.610745752189928E+01,  2.664477431130408E-03,
2471319.500000000, A.D. 2054-Feb-21 00:00:00.0000, -1.303168261528841E+08,  7.039029197779505E+07, -4.267666447833180E+02, -1.455296291038623E+01, -2.635641943239328E+01,  2.535858732198193E-03,
2471320.500000000, A.D. 2054-Feb-22 00:00:00.0000, -1.315542960308229E+08,  6.810261774766390E+07, -2.106523435227573E+02, -1.409158381574517E+01, -2.659773878072042E+01,  2.479624602043984E-03,
2471321.500000000, A.D. 2054-Feb-23 00:00:00.0000, -1.327517489793003E+08,  6.579442006260058E+07,  3.981628280133009E+00, -1.362663200674119E+01, -2.683150854767547E+01,  2.501880185670657E-03,
